[{"OBJECT_NAME":"OBJECT C","OBJECT_ID":"2024-018C","EPOCH":"2026-03-09T23:27:02.912256","MEAN_MOTION":14.40497628,"ECCENTRICITY":0.04251116,"INCLINATION":58.684,"RA_OF_ASC_NODE":211.7369,"ARG_OF_PERICENTER":351.7809,"MEAN_ANOMALY":7.6397,"EPHEMERIS_TYPE":0,"CLASSIFICATION_TYPE":"U","NORAD_CAT_ID":58851,"ELEMENT_SET_NO":999,"REV_AT_EPOCH":11099,"BSTAR":0.00023456096,"MEAN_MOTION_DOT":1.991e-5,"MEAN_MOTION_DDOT":0},{"OBJECT_NAME":"CZ-6A DEB","OBJECT_ID":"2022-151ACJ","EPOCH":"2026-03-09T21:18:20.181312","MEAN_MOTION":13.93819503,"ECCENTRICITY":0.01197181,"INCLINATION":98.9415,"RA_OF_ASC_NODE":46.7234,"ARG_OF_PERICENTER":350.8608,"MEAN_ANOMALY":9.0374,"EPHEMERIS_TYPE":0,"CLASSIFICATION_TYPE":"U","NORAD_CAT_ID":56266,"ELEMENT_SET_NO":999,"REV_AT_EPOCH":15119,"BSTAR":0.00022614755,"MEAN_MOTION_DOT":2.73e-6,"MEAN_MOTION_DDOT":0}]
